{"type": "FeatureCollection", "name": "real_hop_high", "properties": {"phases": [{"phase": "ascent", "label": "Powered ascent", "span": "liftoff to main-engine cutoff", "failures": 3, "probability": 0.046875, "ci95": [0.016069016661225302, 0.1289965382897061], "vehicle_lost": 3, "loss_probability": 0.046875, "loss_ci95": [0.016069016661225302, 0.1289965382897061], "modes": {"terrain_impact": 3}}, {"phase": "descent", "label": "Coast, entry and aero descent", "span": "MECO to landing-burn ignition", "failures": 0, "probability": 0.0, "ci95": [0.0, 0.05662406063551054], "vehicle_lost": 0, "loss_probability": 0.0, "loss_ci95": [0.0, 0.05662406063551054], "modes": {}}, {"phase": "landing", "label": "Landing burn and touchdown", "span": "landing burn, touchdown, settling", "failures": 5, "probability": 0.078125, "ci95": [0.033831176694428755, 0.17019537446678323], "vehicle_lost": 1, "loss_probability": 0.015625, "loss_ci95": [0.0027635418927853816, 0.08334101684786545], "modes": {"missed_target": 4, "tipped_over": 1}}], "stats": {"runs": 64, "valid_runs": 64, "sim_errors": 0, "success_probability": 0.875, "success_ci95": [0.7722543808249782, 0.9352775736983887], "vehicle_loss_probability": 0.0625, "vehicle_loss_ci95": [0.02457120122589082, 0.1499748518301809], "cep50_m": 5.477749382408456, "cep90_m": 28.264534707052174}, "sources": {"monte_carlo": {"dir": "real_hop_high", "mission": "real_hop", "fidelity": "high", "runs": 64}, "replay": {"title": "Cargo hop: real_hop", "fidelity": "high", "outcome": "landed"}}, "disclaimer": "Engineering input to a licence application (e.g. the flight safety analysis of FAA 14 CFR 450), not a certified analysis. The intact vehicle is propagated: there is no breakup, debris-fragment, population or casualty-expectation model. Probabilities are simulation estimates with the stated sampling intervals; model-form error is not included beyond the dispersed parameters.", "crs": "WGS-84 longitude/latitude, degrees"}, "features": [{"type": "Feature", "geometry": {"type": "Point", "coordinates": [-106.986, 32.99]}, "properties": {"kind": "launch_site", "name": "Launch site"}}, {"type": "Feature", "geometry": {"type": "Point", "coordinates": [-99.225, 35.335]}, "properties": {"kind": "landing_site", "name": "Landing site"}}, {"type": "Feature", "geometry": {"type": "LineString", "coordinates": [[-106.986, 32.99, 1412.9], [-106.9859999, 32.9900001, 1415.4], [-106.985999, 32.9899998, 1428.3], [-106.985997, 32.9899998, 1452.6], [-106.9859935, 32.9900003, 1488.5], [-106.985991, 32.9900009, 1536.0], [-106.9859814, 32.9900059, 1595.5], [-106.9859516, 32.9900192, 1666.9], [-106.985889, 32.9900435, 1750.4], [-106.9857799, 32.9900835, 1845.7], [-106.9856108, 32.9901438, 1952.9], [-106.9853671, 32.9902307, 2071.5], [-106.9850429, 32.9903446, 2201.6], [-106.984637, 32.9904869, 2343.3], [-106.9841545, 32.9906583, 2497.0], [-106.9836268, 32.9908518, 2663.7], [-106.9830482, 32.9910691, 2843.4], [-106.98241, 32.991312, 3036.2], [-106.9817097, 32.9915803, 3242.2], [-106.9809393, 32.9918651, 3461.5], [-106.9800931, 32.992165, 3694.1], [-106.9791635, 32.9924814, 3940.2], [-106.9781367, 32.9928283, 4199.1], [-106.9770092, 32.9932071, 4471.0], [-106.975794, 32.9936148, 4756.0], [-106.9744898, 32.9940579, 5053.9], [-106.9730825, 32.9945272, 5363.7], [-106.9715667, 32.9950363, 5684.5], [-106.9699423, 32.9955896, 6015.8], [-106.968212, 32.9961921, 6357.1], [-106.9663812, 32.9968378, 6708.4], [-106.964431, 32.9975206, 7068.8], [-106.9623561, 32.9982375, 7438.3], [-106.9601586, 32.9989911, 7817.2], [-106.9578292, 32.9997779, 8205.3], [-106.9553767, 33.0006073, 8603.3], [-106.9528047, 33.001472, 9011.6], [-106.9501001, 33.0023738, 9430.0], [-106.9472664, 33.0033307, 9858.3], [-106.9443053, 33.0043387, 10297.2], [-106.941212, 33.0053958, 10746.8], [-106.9379812, 33.0064957, 11207.4], [-106.9346045, 33.0076434, 11678.7], [-106.9310738, 33.008844, 12160.5], [-106.9273902, 33.0100937, 12653.5], [-106.9235507, 33.0114024, 13157.8], [-106.9195522, 33.0127683, 13673.6], [-106.9153872, 33.0141926, 14201.1], [-106.9110486, 33.0156813, 14740.3], [-106.9065344, 33.0172357, 15291.6], [-106.9018404, 33.0188511, 15855.7], [-106.8969632, 33.0205339, 16432.9], [-106.8918931, 33.0222804, 17023.4], [-106.8866249, 33.0240961, 17627.4], [-106.8811517, 33.0259838, 18245.3], [-106.8754679, 33.0279435, 18877.5], [-106.8695684, 33.0299788, 19524.3], [-106.8634446, 33.0320904, 20186.1], [-106.8570922, 33.0342808, 20863.3], [-106.8505052, 33.0365537, 21556.3], [-106.8436754, 33.0389092, 22265.4], [-106.8365982, 33.0413524, 22991.0], [-106.8292652, 33.0438853, 23733.4], [-106.8216697, 33.0465085, 24493.1], [-106.8138066, 33.0492266, 25270.4], [-106.8056672, 33.0520398, 26065.7], [-106.7972447, 33.0549504, 26879.4], [-106.7885334, 33.0579628, 27712.0], [-106.7795246, 33.0610772, 28563.7], [-106.7702117, 33.0642974, 29435.0], [-106.7605882, 33.0676271, 30326.3], [-106.750645, 33.0710667, 31238.1], [-106.7403759, 33.0746208, 32170.6], [-106.7297731, 33.0782912, 33124.5], [-106.7188283, 33.0820805, 34100.0], [-106.7075346, 33.0859922, 35097.8], [-106.6958828, 33.0900278, 36118.2], [-106.6838656, 33.0941915, 37161.7], [-106.671475, 33.098486, 38228.8], [-106.6587016, 33.1029137, 39320.0], [-106.6455375, 33.1074788, 40435.7], [-106.6319767, 33.112183, 41576.3], [-106.618016, 33.1170262, 42741.8], [-106.6036547, 33.1220104, 43931.9], [-106.5888908, 33.1271353, 45146.7], [-106.5737226, 33.132402, 46385.9], [-106.5581495, 33.1378113, 47649.6], [-106.5421694, 33.1433624, 48937.6], [-106.5257817, 33.1490571, 50249.9], [-106.5089854, 33.1548952, 51586.3], [-106.4917789, 33.1608766, 52946.8], [-106.4741621, 33.1670032, 54331.4], [-106.4561336, 33.173274, 55739.9], [-106.4376925, 33.1796901, 57172.2], [-106.4188382, 33.1862512, 58628.4], [-106.3996004, 33.1929456, 60105.8], [-106.3802818, 33.199663, 61581.2], [-106.3609736, 33.2063721, 63047.6], [-106.3416758, 33.2130736, 64504.9], [-106.3223888, 33.2197684, 65953.4], [-106.3031129, 33.2264571, 67392.9], [-106.2838486, 33.2331404, 68823.6], [-106.2645962, 33.2398183, 70245.3], [-106.2453558, 33.246491, 71658.1], [-106.2261274, 33.2531582, 73062.0], [-106.2069107, 33.2598198, 74457.0], [-106.1877054, 33.2664755, 75843.0], [-106.1685109, 33.2731249, 77220.1], [-106.1493267, 33.2797677, 78588.3], [-106.1301523, 33.2864038, 79947.7], [-106.1109871, 33.293033, 81298.1], [-106.0918304, 33.2996551, 82639.7], [-106.0726816, 33.3062701, 83972.4], [-106.0535405, 33.3128781, 85296.3], [-106.0344065, 33.3194789, 86611.4], [-106.0152793, 33.3260728, 87917.8], [-105.9961588, 33.3326597, 89215.4], [-105.9770447, 33.3392397, 90504.2], [-105.9579369, 33.3458129, 91784.3], [-105.9388352, 33.3523794, 93055.7], [-105.9197396, 33.3589391, 94318.4], [-105.9006499, 33.3654921, 95572.3], [-105.8815662, 33.3720384, 96817.5], [-105.8624882, 33.378578, 98054.0], [-105.843416, 33.385111, 99281.8], [-105.8243495, 33.3916373, 100500.9], [-105.8052887, 33.398157, 101711.2], [-105.7862334, 33.4046699, 102912.9], [-105.7671836, 33.4111762, 104105.9], [-105.7481388, 33.4176754, 105290.1], [-105.7290985, 33.4241669, 106465.6], [-105.7100629, 33.4306515, 107632.5], [-105.6910321, 33.4371294, 108790.7], [-105.6720061, 33.4436008, 109940.2], [-105.6529849, 33.4500657, 111081.0], [-105.6339683, 33.4565241, 112213.2], [-105.6149564, 33.4629761, 113336.7], [-105.595949, 33.4694216, 114451.6], [-105.576946, 33.4758607, 115557.8], [-105.5579476, 33.4822934, 116655.3], [-105.5389535, 33.4887197, 117744.2], [-105.5199637, 33.4951396, 118824.5], [-105.5009781, 33.5015532, 119896.1], [-105.4819968, 33.5079605, 120959.1], [-105.4630196, 33.5143616, 122013.4], [-105.4440464, 33.5207563, 123059.2], [-105.4250773, 33.5271448, 124096.2], [-105.4061121, 33.533527, 125124.7], [-105.3871508, 33.5399031, 126144.5], [-105.3681933, 33.5462729, 127155.7], [-105.3492396, 33.5526366, 128158.3], [-105.3302896, 33.5589942, 129152.2], [-105.3113432, 33.5653456, 130137.6], [-105.2924004, 33.5716909, 131114.3], [-105.2734611, 33.5780301, 132082.4], [-105.2545252, 33.5843632, 133041.9], [-105.2355928, 33.5906902, 133992.8], [-105.2166636, 33.5970112, 134935.1], [-105.1977378, 33.6033262, 135868.8], [-105.1788151, 33.6096352, 136793.8], [-105.1598957, 33.6159382, 137710.3], [-105.1409793, 33.6222353, 138618.2], [-105.122066, 33.6285264, 139517.5], [-105.1031557, 33.6348116, 140408.2], [-105.0842483, 33.6410909, 141290.4], [-105.0653438, 33.6473644, 142163.9], [-105.0464421, 33.653632, 143028.9], [-105.0275431, 33.6598937, 143885.3], [-105.0086468, 33.6661496, 144733.1], [-104.9897531, 33.6723997, 145572.3], [-104.970862, 33.6786441, 146402.9], [-104.9519733, 33.6848827, 147225.0], [-104.9330872, 33.6911155, 148038.5], [-104.9142034, 33.6973426, 148843.4], [-104.8953219, 33.703564, 149639.8], [-104.8764427, 33.7097797, 150427.5], [-104.8575657, 33.7159897, 151206.8], [-104.8386909, 33.7221941, 151977.4], [-104.8198181, 33.7283927, 152739.6], [-104.8009474, 33.7345858, 153493.1], [-104.7820786, 33.7407733, 154238.1], [-104.7632118, 33.7469552, 154974.6], [-104.7443468, 33.7531315, 155702.5], [-104.7254836, 33.7593023, 156421.8], [-104.7066221, 33.7654676, 157132.6], [-104.6877624, 33.7716273, 157834.8], [-104.6689042, 33.7777816, 158528.5], [-104.6500476, 33.7839304, 159213.7], [-104.6311925, 33.7900737, 159890.3], [-104.6123389, 33.7962116, 160558.4], [-104.5934866, 33.8023441, 161217.9], [-104.5746357, 33.8084711, 161868.9], [-104.5557861, 33.8145928, 162511.4], [-104.5369376, 33.8207091, 163145.4], [-104.5180903, 33.8268201, 163770.8], [-104.4992441, 33.8329257, 164387.6], [-104.4803989, 33.839026, 164996.0], [-104.4615547, 33.845121, 165595.8], [-104.4427115, 33.8512107, 166187.1], [-104.4238691, 33.8572951, 166769.9], [-104.4050274, 33.8633743, 167344.1], [-104.3861866, 33.8694482, 167909.9], [-104.3673463, 33.8755169, 168467.0], [-104.3485067, 33.8815804, 169015.7], [-104.3296677, 33.8876387, 169555.9], [-104.3108293, 33.8936918, 170087.6], [-104.2919912, 33.8997398, 170610.7], [-104.2731536, 33.9057827, 171125.3], [-104.2543163, 33.9118205, 171631.5], [-104.2354793, 33.9178531, 172129.1], [-104.2166426, 33.9238807, 172618.2], [-104.1978059, 33.9299032, 173098.8], [-104.1789694, 33.9359206, 173570.8], [-104.160133, 33.941933, 174034.4], [-104.1412965, 33.9479404, 174489.5], [-104.1224599, 33.9539428, 174936.1], [-104.1036233, 33.9599402, 175374.1], [-104.0847864, 33.9659326, 175803.7], [-104.0659493, 33.97192, 176224.8], [-104.0471119, 33.9779025, 176637.4], [-104.0282741, 33.9838801, 177041.4], [-104.009436, 33.9898528, 177437.0], [-103.9905973, 33.9958205, 177824.1], [-103.9717581, 34.0017834, 178202.7], [-103.9529184, 34.0077415, 178572.8], [-103.934078, 34.0136946, 178934.4], [-103.9152368, 34.019643, 179287.5], [-103.896395, 34.0255865, 179632.1], [-103.8775523, 34.0315252, 179968.2], [-103.8587087, 34.0374592, 180295.8], [-103.8398642, 34.0433883, 180615.0], [-103.8210186, 34.0493128, 180925.6], [-103.8021721, 34.0552324, 181227.8], [-103.7833244, 34.0611473, 181521.5], [-103.7644755, 34.0670575, 181806.7], [-103.7456255, 34.072963, 182083.4], [-103.7267741, 34.0788638, 182351.6], [-103.7079214, 34.08476, 182611.4], [-103.6890673, 34.0906515, 182862.7], [-103.6702118, 34.0965384, 183105.4], [-103.6513547, 34.1024207, 183339.7], [-103.632496, 34.1082983, 183565.5], [-103.6136358, 34.1141714, 183782.9], [-103.5947738, 34.1200399, 183991.7], [-103.5759101, 34.1259038, 184192.1], [-103.5570446, 34.1317631, 184384.0], [-103.5381772, 34.137618, 184567.4], [-103.5193079, 34.1434682, 184742.3], [-103.5004366, 34.149314, 184908.8], [-103.4815633, 34.1551553, 185066.8], [-103.462688, 34.1609922, 185216.3], [-103.4438104, 34.1668245, 185357.3], [-103.4249307, 34.1726525, 185489.9], [-103.4060486, 34.1784759, 185613.9], [-103.3871643, 34.184295, 185729.5], [-103.3682775, 34.1901097, 185836.7], [-103.3493884, 34.1959199, 185935.3], [-103.3304967, 34.2017258, 186025.5], [-103.3116025, 34.2075273, 186107.2], [-103.2927056, 34.2133245, 186180.4], [-103.2738061, 34.2191173, 186245.2], [-103.2549039, 34.2249058, 186301.5], [-103.2359988, 34.23069, 186349.3], [-103.2170909, 34.2364699, 186388.6], [-103.1981801, 34.2422455, 186419.5], [-103.1792663, 34.2480168, 186441.9], [-103.1603495, 34.2537839, 186455.8], [-103.1414297, 34.2595468, 186461.2], [-103.1225067, 34.2653054, 186458.2], [-103.1035804, 34.2710598, 186446.7], [-103.084651, 34.2768099, 186426.7], [-103.0657182, 34.2825559, 186398.2], [-103.046782, 34.2882977, 186361.3], [-103.0278424, 34.2940354, 186315.9], [-103.0088993, 34.2997689, 186262.0], [-102.9899527, 34.3054982, 186199.6], [-102.9710024, 34.3112234, 186128.8], [-102.9520485, 34.3169446, 186049.5], [-102.9330909, 34.3226616, 185961.7], [-102.9141295, 34.3283746, 185865.5], [-102.8951642, 34.3340835, 185760.7], [-102.876195, 34.3397883, 185647.5], [-102.8572219, 34.3454891, 185525.8], [-102.8382448, 34.3511858, 185395.7], [-102.8192636, 34.3568786, 185257.1], [-102.8002782, 34.3625674, 185110.0], [-102.7812887, 34.3682521, 184954.4], [-102.7622949, 34.3739329, 184790.3], [-102.7432968, 34.3796097, 184617.8], [-102.7242943, 34.3852825, 184436.8], [-102.7052873, 34.3909513, 184247.3], [-102.6862759, 34.3966162, 184049.3], [-102.6672599, 34.4022772, 183842.8], [-102.6482393, 34.4079343, 183627.9], [-102.629214, 34.4135875, 183404.5], [-102.6101841, 34.4192368, 183172.6], [-102.5911493, 34.4248823, 182932.2], [-102.5721096, 34.4305239, 182683.4], [-102.5530651, 34.4361617, 182426.0], [-102.5340156, 34.4417956, 182160.2], [-102.5149611, 34.4474257, 181885.9], [-102.4959014, 34.453052, 181603.1], [-102.4768367, 34.4586745, 181311.8], [-102.4577667, 34.4642932, 181012.0], [-102.4386915, 34.4699081, 180703.8], [-102.4196109, 34.4755193, 180387.0], [-102.4005249, 34.4811267, 180061.8], [-102.3814335, 34.4867304, 179728.1], [-102.3623366, 34.4923304, 179385.9], [-102.3432342, 34.4979266, 179035.2], [-102.324126, 34.5035192, 178676.0], [-102.3050123, 34.509108, 178308.3], [-102.2858927, 34.5146932, 177932.1], [-102.2667674, 34.5202747, 177547.5], [-102.2476362, 34.5258526, 177154.3], [-102.228499, 34.5314268, 176752.6], [-102.2093559, 34.5369974, 176342.5], [-102.1902067, 34.5425644, 175923.8], [-102.1710514, 34.5481277, 175496.6], [-102.1518899, 34.5536875, 175061.0], [-102.1327222, 34.5592436, 174616.8], [-102.1135482, 34.5647962, 174164.1], [-102.0943678, 34.5703452, 173703.0], [-102.0751811, 34.5758907, 173233.3], [-102.0559878, 34.5814326, 172755.1], [-102.036788, 34.586971, 172268.4], [-102.0175816, 34.5925059, 171773.2], [-101.9983685, 34.5980373, 171269.5], [-101.9791487, 34.6035651, 170757.3], [-101.9599221, 34.6090895, 170236.6], [-101.9406887, 34.6146104, 169707.3], [-101.9214483, 34.6201279, 169169.6], [-101.902201, 34.6256419, 168623.3], [-101.8829466, 34.6311524, 168068.5], [-101.8636852, 34.6366595, 167505.2], [-101.8444166, 34.6421633, 166933.4], [-101.8251408, 34.6476635, 166353.0], [-101.8058577, 34.6531604, 165764.1], [-101.7865672, 34.6586539, 165166.7], [-101.7672693, 34.6641441, 164560.8], [-101.747964, 34.6696308, 163946.4], [-101.7286511, 34.6751142, 163323.4], [-101.7093306, 34.6805943, 162691.9], [-101.6900025, 34.686071, 162051.8], [-101.6706667, 34.6915444, 161403.2], [-101.651323, 34.6970145, 160746.1], [-101.6319715, 34.7024813, 160080.5], [-101.6126122, 34.7079448, 159406.3], [-101.5932448, 34.713405, 158723.5], [-101.5738694, 34.7188619, 158032.3], [-101.5544859, 34.7243156, 157332.4], [-101.5350942, 34.729766, 156624.1], [-101.5156943, 34.7352132, 155907.2], [-101.4962861, 34.7406571, 155181.7], [-101.4768695, 34.7460979, 154447.7], [-101.4574445, 34.7515354, 153705.1], [-101.4380111, 34.7569697, 152954.0], [-101.418569, 34.7624008, 152194.3], [-101.3991184, 34.7678288, 151426.1], [-101.3796591, 34.7732536, 150649.3], [-101.360191, 34.7786752, 149863.9], [-101.3407142, 34.7840937, 149070.0], [-101.3212284, 34.7895091, 148267.5], [-101.3017338, 34.7949213, 147456.5], [-101.2822301, 34.8003304, 146636.8], [-101.2627174, 34.8057364, 145808.6], [-101.2431955, 34.8111393, 144971.9], [-101.2236644, 34.8165391, 144126.5], [-101.204124, 34.8219358, 143272.6], [-101.1845743, 34.8273295, 142410.1], [-101.1650153, 34.83272, 141539.0], [-101.1454467, 34.8381075, 140659.3], [-101.1258686, 34.843492, 139771.0], [-101.1062809, 34.8488734, 138874.2], [-101.0866836, 34.8542518, 137968.7], [-101.0670765, 34.8596272, 137054.7], [-101.0474597, 34.8649996, 136132.0], [-101.027833, 34.870369, 135200.8], [-101.0081964, 34.8757355, 134261.0], [-100.9885498, 34.8810989, 133312.5], [-100.9688931, 34.8864594, 132355.5], [-100.9492263, 34.8918169, 131389.8], [-100.9295493, 34.8971715, 130415.5], [-100.909862, 34.9025232, 129432.7], [-100.8901644, 34.9078719, 128441.2], [-100.8704564, 34.9132177, 127441.0], [-100.850738, 34.9185606, 126432.3], [-100.831009, 34.9239006, 125414.9], [-100.8112694, 34.9292377, 124389.0], [-100.7915191, 34.9345719, 123354.3], [-100.7717581, 34.9399033, 122311.1], [-100.7519863, 34.9452318, 121259.2], [-100.7322036, 34.9505574, 120198.7], [-100.7124099, 34.9558802, 119129.6], [-100.6926053, 34.9612001, 118051.8], [-100.6727895, 34.9665173, 116965.3], [-100.6529627, 34.9718316, 115870.2], [-100.6331245, 34.977143, 114766.5], [-100.6132751, 34.9824517, 113654.1], [-100.5934144, 34.9877576, 112533.1], [-100.5735422, 34.9930607, 111403.4], [-100.5536585, 34.998361, 110265.0], [-100.5337632, 35.0036585, 109118.0], [-100.5138564, 35.0089533, 107962.3], [-100.4939378, 35.0142454, 106797.9], [-100.4740074, 35.0195347, 105624.9], [-100.4540652, 35.0248213, 104443.1], [-100.4341111, 35.0301051, 103252.7], [-100.4141449, 35.0353863, 102053.7], [-100.3941667, 35.0406647, 100845.9], [-100.3741764, 35.0459404, 99629.5], [-100.3541739, 35.0512134, 98404.3], [-100.3341591, 35.0564838, 97170.5], [-100.3141319, 35.0617514, 95928.0], [-100.2940924, 35.0670164, 94676.7], [-100.2740404, 35.0722788, 93416.8], [-100.2539759, 35.0775385, 92148.2], [-100.2338988, 35.0827955, 90870.8], [-100.213809, 35.08805, 89584.8], [-100.1937066, 35.0933017, 88290.0], [-100.1735914, 35.0985508, 86986.5], [-100.1534634, 35.1037973, 85674.3], [-100.1333227, 35.1090411, 84353.4], [-100.1131691, 35.1142822, 83023.8], [-100.0930028, 35.1195206, 81685.5], [-100.0728237, 35.1247564, 80338.4], [-100.0526318, 35.1299894, 78982.7], [-100.0324272, 35.1352198, 77618.3], [-100.0122101, 35.1404473, 76245.1], [-99.9919805, 35.1456721, 74863.3], [-99.9717387, 35.1508939, 73472.9], [-99.9514849, 35.1561128, 72073.7], [-99.9312193, 35.1613287, 70666.0], [-99.9109424, 35.1665414, 69249.7], [-99.8906546, 35.1717509, 67824.8], [-99.8703566, 35.1769569, 66391.3], [-99.850049, 35.1821593, 64949.5], [-99.8297329, 35.1873578, 63499.2], [-99.8094093, 35.1925522, 62040.6], [-99.7890795, 35.197742, 60573.8], [-99.7687474, 35.2029266, 59099.2], [-99.7486582, 35.208038, 57632.6], [-99.7290598, 35.2129744, 56177.5], [-99.7099592, 35.2177334, 54732.6], [-99.6913551, 35.2223256, 53299.5], [-99.673235, 35.2267722, 51882.4], [-99.6555808, 35.2310912, 50485.2], [-99.6383764, 35.2352935, 49110.6], [-99.6216106, 35.2393844, 47760.1], [-99.6052757, 35.2433666, 46434.7], [-99.5893672, 35.247241, 45134.8], [-99.5738826, 35.2510084, 43860.9], [-99.55882, 35.2546694, 42613.2], [-99.5441788, 35.2582243, 41391.8], [-99.5299571, 35.2616738, 40196.9], [-99.5161543, 35.2650183, 39028.6], [-99.5027694, 35.2682586, 37887.1], [-99.4898009, 35.2713951, 36772.6], [-99.4772476, 35.2744282, 35685.1], [-99.4651094, 35.2773582, 34624.9], [-99.4533833, 35.280186, 33592.2], [-99.4420676, 35.2829125, 32587.1], [-99.4311613, 35.2855378, 31609.9], [-99.4205834, 35.288082, 30653.1], [-99.4102305, 35.2905723, 29706.9], [-99.4001167, 35.2930033, 28776.1], [-99.3902345, 35.2953743, 27866.9], [-99.3806196, 35.2976797, 26980.2], [-99.3713051, 35.2999117, 26118.0], [-99.3623211, 35.302063, 25282.2], [-99.3536945, 35.3041273, 24474.4], [-99.3454476, 35.3060995, 23696.5], [-99.337598, 35.3079755, 22949.9], [-99.330158, 35.3097525, 22236.1], [-99.3231348, 35.3114291, 21556.0], [-99.3165298, 35.313005, 20910.0], [-99.3103396, 35.314481, 20298.4], [-99.3045557, 35.3158595, 19720.7], [-99.299165, 35.3171436, 19176.4], [-99.294151, 35.3183374, 18664.5], [-99.2894957, 35.3194452, 18183.5], [-99.2851794, 35.320472, 17731.9], [-99.2811811, 35.3214229, 17308.1], [-99.277479, 35.322303, 16910.1], [-99.2740519, 35.3231173, 16536.2], [-99.2708783, 35.3238712, 16184.6], [-99.2679384, 35.3245696, 15853.5], [-99.2652128, 35.3252173, 15541.3], [-99.262684, 35.3258181, 15246.3], [-99.2603354, 35.3263758, 14967.0], [-99.2581505, 35.3268945, 14701.7], [-99.2561134, 35.3273779, 14448.9], [-99.2542096, 35.3278293, 14207.2], [-99.252425, 35.3282525, 13975.2], [-99.2507453, 35.3286516, 13751.5], [-99.2491576, 35.3290295, 13534.9], [-99.2476502, 35.3293892, 13324.2], [-99.246214, 35.3297326, 13118.6], [-99.2448418, 35.3300614, 12917.3], [-99.2435275, 35.3303768, 12719.4], [-99.2422659, 35.3306802, 12524.6], [-99.2410522, 35.3309725, 12332.1], [-99.239883, 35.3312539, 12141.8], [-99.2387556, 35.3315255, 11953.1], [-99.2376678, 35.3317884, 11765.7], [-99.236618, 35.3320429, 11579.4], [-99.2356048, 35.332289, 11393.8], [-99.2346273, 35.3325267, 11208.9], [-99.2336853, 35.3327563, 11024.5], [-99.2327787, 35.3329778, 10840.7], [-99.231907, 35.3331917, 10657.5], [-99.2310689, 35.3333976, 10474.9], [-99.2302638, 35.3335959, 10292.9], [-99.2294923, 35.3337861, 10111.7], [-99.2287541, 35.3339686, 9931.3], [-99.2280484, 35.3341436, 9751.7], [-99.2273745, 35.3343107, 9572.9], [-99.226732, 35.3344694, 9394.9], [-99.2261207, 35.3346204, 9217.7], [-99.2255402, 35.3347642, 9041.4], [-99.2249889, 35.3349011, 8865.9], [-99.2244661, 35.3350309, 8691.2], [-99.2239718, 35.3351543, 8517.4], [-99.2235061, 35.3352708, 8344.6], [-99.2230684, 35.3353807, 8172.7], [-99.2226575, 35.3354836, 8001.8], [-99.2222713, 35.3355789, 7832.0], [-99.2219095, 35.3356679, 7663.3], [-99.2215726, 35.3357506, 7495.7], [-99.2212603, 35.3358257, 7329.4], [-99.2209722, 35.3358939, 7164.4], [-99.2207076, 35.3359567, 7000.7], [-99.2204659, 35.3360148, 6838.3], [-99.220247, 35.3360696, 6677.1], [-99.2200492, 35.3361208, 6517.4], [-99.2198707, 35.3361662, 6359.0], [-99.2197123, 35.3362052, 6202.0], [-99.2195743, 35.3362384, 6046.1], [-99.2194566, 35.3362666, 5891.3], [-99.2193597, 35.336291, 5737.6], [-99.2192816, 35.3363104, 5585.0], [-99.2192202, 35.3363268, 5433.4], [-99.2191752, 35.3363419, 5282.8], [-99.219146, 35.3363534, 5133.4], [-99.2191339, 35.3363604, 4985.2], [-99.2191402, 35.3363617, 4838.5], [-99.2191644, 35.3363594, 4693.2], [-99.2192041, 35.3363545, 4549.1], [-99.2192585, 35.3363454, 4406.2], [-99.2193261, 35.3363317, 4264.8], [-99.2194044, 35.336314, 4125.0], [-99.2194937, 35.3362937, 3986.9], [-99.2195971, 35.3362713, 3850.6], [-99.2197173, 35.3362446, 3716.1], [-99.2198547, 35.3362125, 3583.5], [-99.2200068, 35.3361761, 3452.6], [-99.2201697, 35.3361377, 3323.0], [-99.2203466, 35.3360987, 3195.0], [-99.2205377, 35.3360583, 3068.5], [-99.2207427, 35.3360148, 2943.5], [-99.2209579, 35.3359658, 2820.0], [-99.2211761, 35.3359164, 2697.6], [-99.2213921, 35.3358659, 2575.7], [-99.2216045, 35.3358193, 2454.6], [-99.2218104, 35.3357715, 2334.2], [-99.2220164, 35.3357249, 2215.2], [-99.2222309, 35.3356756, 2097.8], [-99.2224495, 35.3356217, 1982.2], [-99.2226637, 35.3355697, 1868.2], [-99.222871, 35.3355212, 1755.3], [-99.2230799, 35.3354728, 1643.7], [-99.2232941, 35.3354172, 1533.2], [-99.2235166, 35.3353594, 1423.8], [-99.2237412, 35.3353003, 1314.9], [-99.2239606, 35.3352466, 1206.1], [-99.2241657, 35.3352012, 1097.1], [-99.2243487, 35.3351619, 987.7], [-99.2245012, 35.3351306, 878.0], [-99.2246049, 35.3350981, 778.8], [-99.2247004, 35.3350584, 701.0], [-99.22478, 35.3350357, 643.8], [-99.2248468, 35.3350112, 612.0], [-99.2248978, 35.334993, 607.6], [-99.2249325, 35.3349834, 606.6], [-99.2249352, 35.334978, 603.3], [-99.2249396, 35.3349773, 597.1], [-99.2249424, 35.3349768, 595.1], [-99.2249431, 35.3349751, 594.0], [-99.2249397, 35.3349758, 592.9], [-99.2249362, 35.3349778, 591.9], [-99.2249335, 35.334978, 591.7], [-99.2249329, 35.3349785, 591.6], [-99.2249328, 35.3349787, 591.6], [-99.2249328, 35.3349787, 591.6], [-99.2249329, 35.3349786, 591.6], [-99.2249329, 35.3349786, 591.6]]}, "properties": {"kind": "ground_track", "name": "Nominal ground track", "note": "third coordinate: height above the ellipsoid, m"}}, {"type": "Feature", "geometry": {"type": "LineString", "coordinates": [[-106.9859868, 32.9900222], [-106.9859507, 32.9900253], [-106.985899, 32.9900548], [-106.985259, 32.9903786], [-106.9827422, 32.991268], [-106.9774206, 32.9931373], [-106.9692392, 32.9959661], [-106.960386, 32.9994064], [-106.9509845, 33.0033488], [-106.9387618, 33.0077702], [-106.9230044, 33.0118824], [-106.9023789, 33.0184691], [-106.8803315, 33.0261747], [-106.854001, 33.0344134], [-106.8249669, 33.0458329], [-106.7939838, 33.0572996], [-106.7576641, 33.0684183], [-106.7173773, 33.080611], [-106.6742246, 33.093744], [-106.6270878, 33.1113874], [-106.5748647, 33.1291266], [-106.5158436, 33.1484727], [-106.4508893, 33.1701328], [-106.3792285, 33.1946888], [-106.2992756, 33.2227453], [-106.2107343, 33.2527429], [-106.1116501, 33.2853918], [-106.0013265, 33.322142], [-105.8786015, 33.3627957], [-105.7423002, 33.4077739], [-105.5908779, 33.457332], [-105.4230491, 33.5122489], [-105.2373919, 33.5728495], [-105.0318454, 33.6391275], [-104.8045427, 33.7116171], [-104.5536648, 33.7914869], [-104.2766445, 33.8789801], [-103.9706966, 33.9745002], [-103.6327512, 34.0785974], [-103.2596124, 34.1924608], [-102.8479339, 34.3166725], [-102.404593, 34.4479786], [-101.9328164, 34.5856631], [-101.431693, 34.7295188], [-100.9002716, 34.8794275], [-100.337386, 35.0349375], [-99.7418933, 35.1959079], [-99.1125326, 35.3619462], [-99.0326742, 35.3865802], [-99.0503608, 35.3796284], [-99.0699428, 35.3723721], [-99.082122, 35.3687906], [-99.0895876, 35.3669709], [-99.0953719, 35.3655825], [-99.1007181, 35.3642819], [-99.1058847, 35.3630145], [-99.1110371, 35.3617656], [-99.1161355, 35.360517], [-99.1211713, 35.3592883], [-99.1262209, 35.3580589]]}, "properties": {"kind": "iip_vacuum", "name": "IIP trace (vacuum)", "t_start_s": 0.5, "t_end_s": 462.25}}, {"type": "Feature", "geometry": {"type": "LineString", "coordinates": [[-106.9859952, 32.9900002], [-106.9859683, 32.9899979], [-106.9859264, 32.9900135], [-106.9854212, 32.9902589], [-106.9834338, 32.99095], [-106.9793798, 32.9923591], [-106.9735406, 32.9943607], [-106.9678186, 32.9965812], [-106.9623181, 32.998903], [-106.9556875, 33.0012694], [-106.9477263, 33.0032097], [-106.9379942, 33.006271], [-106.9281964, 33.0096956], [-106.9167858, 33.0132258], [-106.9044081, 33.018144], [-106.891149, 33.0230689], [-106.8755339, 33.0278617], [-106.857754, 33.0332904], [-106.8378802, 33.0394243], [-106.8150551, 33.0478607], [-106.7882158, 33.0570103], [-106.75627, 33.0676032], [-106.719099, 33.0800952], [-106.6754337, 33.0950805], [-106.6233373, 33.1132815], [-106.5609108, 33.1345732], [-106.4855323, 33.1598009], [-106.3948632, 33.1903379], [-106.2861784, 33.2267723], [-106.1572855, 33.2698115], [-106.0068365, 33.3196908], [-105.8337235, 33.3769553], [-105.6371687, 33.4417244], [-105.4163379, 33.5137014], [-105.1698221, 33.5931862], [-104.896764, 33.6808604], [-104.5959195, 33.7766021], [-104.2662618, 33.8802698], [-103.9058427, 33.9920557], [-103.5119282, 34.1129556], [-103.0813546, 34.2435142], [-102.6206313, 34.3806251], [-102.1331046, 34.5234996], [-101.6180537, 34.6718967], [-101.0741988, 34.8258072], [-100.5002748, 34.9848304], [-99.8949684, 35.1488818], [-99.257318, 35.3175096], [-99.1338701, 35.3615119], [-99.1508257, 35.3551112], [-99.1690194, 35.3485717], [-99.1812679, 35.3450852], [-99.1897193, 35.3430431], [-99.1966932, 35.3413802], [-99.2030831, 35.3398445], [-99.2090332, 35.3384074], [-99.2146003, 35.3370742], [-99.2196932, 35.3358462], [-99.2242388, 35.3347533], [-99.2282142, 35.3337993]]}, "properties": {"kind": "iip_drag", "name": "IIP trace (drag-aware)", "t_start_s": 0.5, "t_end_s": 462.25}}, {"type": "Feature", "geometry": {"type": "Polygon", "coordinates": [[[-99.225206, 35.3350839], [-99.2252094, 35.3350677], [-99.2252108, 35.3350513], [-99.2252099, 35.3350347], [-99.225207, 35.3350181], [-99.225202, 35.3350016], [-99.2251949, 35.3349853], [-99.2251858, 35.3349694], [-99.2251747, 35.334954], [-99.2251618, 35.3349391], [-99.2251471, 35.334925], [-99.2251308, 35.3349117], [-99.2251129, 35.3348992], [-99.2250937, 35.3348878], [-99.2250732, 35.3348775], [-99.2250517, 35.3348684], [-99.2250292, 35.3348605], [-99.225006, 35.3348539], [-99.2249822, 35.3348487], [-99.224958, 35.3348448], [-99.2249335, 35.3348424], [-99.2249091, 35.3348414], [-99.2248848, 35.3348419], [-99.2248609, 35.3348438], [-99.2248375, 35.3348472], [-99.2248149, 35.3348519], [-99.2247931, 35.3348581], [-99.2247723, 35.3348655], [-99.2247528, 35.3348742], [-99.2247346, 35.3348841], [-99.2247179, 35.3348952], [-99.2247028, 35.3349072], [-99.2246894, 35.3349203], [-99.2246779, 35.3349341], [-99.2246683, 35.3349488], [-99.2246607, 35.334964], [-99.2246552, 35.3349798], [-99.2246517, 35.3349959], [-99.2246504, 35.3350124], [-99.2246512, 35.335029], [-99.2246541, 35.3350456], [-99.2246592, 35.3350621], [-99.2246663, 35.3350783], [-99.2246754, 35.3350943], [-99.2246865, 35.3351097], [-99.2246994, 35.3351246], [-99.224714, 35.3351387], [-99.2247304, 35.335152], [-99.2247482, 35.3351645], [-99.2247674, 35.3351759], [-99.2247879, 35.3351862], [-99.2248095, 35.3351953], [-99.224832, 35.3352032], [-99.2248552, 35.3352098], [-99.224879, 35.335215], [-99.2249032, 35.3352189], [-99.2249276, 35.3352213], [-99.224952, 35.3352223], [-99.2249763, 35.3352218], [-99.2250002, 35.3352199], [-99.2250236, 35.3352165], [-99.2250463, 35.3352118], [-99.2250681, 35.3352056], [-99.2250889, 35.3351982], [-99.2251084, 35.3351895], [-99.2251266, 35.3351796], [-99.2251433, 35.3351685], [-99.2251584, 35.3351564], [-99.2251717, 35.3351434], [-99.2251833, 35.3351295], [-99.2251928, 35.3351149], [-99.2252004, 35.3350997], [-99.225206, 35.3350839]]]}, "properties": {"kind": "landing_ellipse_50", "name": "Landing dispersion 50 % ellipse", "probability": 0.5}}, {"type": "Feature", "geometry": {"type": "Polygon", "coordinates": [[[-99.2256405, 35.335166], [-99.2256493, 35.3351244], [-99.2256527, 35.335082], [-99.2256507, 35.3350393], [-99.2256431, 35.3349965], [-99.2256301, 35.3349539], [-99.2256118, 35.334912], [-99.2255883, 35.3348709], [-99.2255598, 35.3348311], [-99.2255265, 35.3347929], [-99.2254887, 35.3347564], [-99.2254466, 35.334722], [-99.2254006, 35.33469], [-99.2253511, 35.3346606], [-99.2252983, 35.334634], [-99.2252427, 35.3346105], [-99.2251848, 35.3345902], [-99.2251249, 35.3345732], [-99.2250635, 35.3345597], [-99.2250011, 35.3345498], [-99.2249382, 35.3345435], [-99.2248753, 35.334541], [-99.2248127, 35.3345423], [-99.2247511, 35.3345472], [-99.2246908, 35.3345558], [-99.2246323, 35.3345681], [-99.2245761, 35.3345839], [-99.2245226, 35.3346031], [-99.2244722, 35.3346255], [-99.2244253, 35.3346511], [-99.2243823, 35.3346795], [-99.2243434, 35.3347107], [-99.224309, 35.3347442], [-99.2242793, 35.33478], [-99.2242546, 35.3348177], [-99.224235, 35.334857], [-99.2242207, 35.3348976], [-99.2242118, 35.3349393], [-99.2242084, 35.3349817], [-99.2242105, 35.3350244], [-99.2242181, 35.3350672], [-99.224231, 35.3351098], [-99.2242493, 35.3351517], [-99.2242728, 35.3351927], [-99.2243013, 35.3352325], [-99.2243346, 35.3352708], [-99.2243725, 35.3353073], [-99.2244145, 35.3353416], [-99.2244605, 35.3353737], [-99.2245101, 35.3354031], [-99.2245629, 35.3354296], [-99.2246184, 35.3354532], [-99.2246764, 35.3354735], [-99.2247363, 35.3354905], [-99.2247976, 35.335504], [-99.22486, 35.3355139], [-99.2249229, 35.3355201], [-99.2249859, 35.3355227], [-99.2250485, 35.3355214], [-99.2251101, 35.3355165], [-99.2251704, 35.3355079], [-99.2252289, 35.3354956], [-99.225285, 35.3354798], [-99.2253385, 35.3354606], [-99.2253889, 35.3354381], [-99.2254358, 35.3354126], [-99.2254789, 35.3353841], [-99.2255178, 35.335353], [-99.2255522, 35.3353194], [-99.2255819, 35.3352837], [-99.2256066, 35.335246], [-99.2256262, 35.3352067], [-99.2256405, 35.335166]]]}, "properties": {"kind": "landing_ellipse_99", "name": "Landing dispersion 99 % ellipse", "probability": 0.99}}, {"type": "Feature", "geometry": {"type": "Point", "coordinates": [-99.2250655, 35.3349759]}, "properties": {"kind": "landing_point", "run": 0, "reason": "landed"}}, {"type": "Feature", "geometry": {"type": "Point", "coordinates": [-99.2249871, 35.3349442]}, "properties": {"kind": "landing_point", "run": 1, "reason": "landed"}}, {"type": "Feature", "geometry": {"type": "Point", "coordinates": [-99.2244215, 35.3348011]}, "properties": {"kind": "landing_point", "run": 2, "reason": "missed_target"}}, {"type": "Feature", "geometry": {"type": "Point", "coordinates": [-99.2250444, 35.3350272]}, "properties": {"kind": "landing_point", "run": 3, "reason": "landed"}}, {"type": "Feature", "geometry": {"type": "Point", "coordinates": [-99.2250165, 35.3350408]}, "properties": {"kind": "landing_point", "run": 4, "reason": "landed"}}, {"type": "Feature", "geometry": {"type": "Point", "coordinates": [-99.224884, 35.3350159]}, "properties": {"kind": "landing_point", "run": 5, "reason": "landed"}}, {"type": "Feature", "geometry": {"type": "Point", "coordinates": [-99.2249594, 35.334987]}, "properties": {"kind": "landing_point", "run": 6, "reason": "landed"}}, {"type": "Feature", "geometry": {"type": "Point", "coordinates": [-99.2249043, 35.3350401]}, "properties": {"kind": "landing_point", "run": 7, "reason": "landed"}}, {"type": "Feature", "geometry": {"type": "Point", "coordinates": [-99.2245661, 35.3350781]}, "properties": {"kind": "landing_point", "run": 8, "reason": "landed"}}, {"type": "Feature", "geometry": {"type": "Point", "coordinates": [-99.2249411, 35.3350209]}, "properties": {"kind": "landing_point", "run": 9, "reason": "landed"}}, {"type": "Feature", "geometry": {"type": "Point", "coordinates": [-99.2249452, 35.3350407]}, "properties": {"kind": "landing_point", "run": 10, "reason": "landed"}}, {"type": "Feature", "geometry": {"type": "Point", "coordinates": [-99.2248453, 35.3350604]}, "properties": {"kind": "landing_point", "run": 11, "reason": "landed"}}, {"type": "Feature", "geometry": {"type": "Point", "coordinates": [-99.2248826, 35.3350381]}, "properties": {"kind": "landing_point", "run": 12, "reason": "landed"}}, {"type": "Feature", "geometry": {"type": "Point", "coordinates": [-99.2249029, 35.3349841]}, "properties": {"kind": "landing_point", "run": 13, "reason": "landed"}}, {"type": "Feature", "geometry": {"type": "Point", "coordinates": [-99.2256935, 35.3359727]}, "properties": {"kind": "landing_point", "run": 14, "reason": "missed_target"}}, {"type": "Feature", "geometry": {"type": "Point", "coordinates": [-99.2249721, 35.335019]}, "properties": {"kind": "landing_point", "run": 16, "reason": "landed"}}, {"type": "Feature", "geometry": {"type": "Point", "coordinates": [-99.2249754, 35.3350252]}, "properties": {"kind": "landing_point", "run": 17, "reason": "landed"}}, {"type": "Feature", "geometry": {"type": "Point", "coordinates": [-99.225053, 35.3349614]}, "properties": {"kind": "landing_point", "run": 18, "reason": "landed"}}, {"type": "Feature", "geometry": {"type": "Point", "coordinates": [-99.2250263, 35.3349908]}, "properties": {"kind": "landing_point", "run": 19, "reason": "landed"}}, {"type": "Feature", "geometry": {"type": "Point", "coordinates": [-99.2249766, 35.3350154]}, "properties": {"kind": "landing_point", "run": 21, "reason": "landed"}}, {"type": "Feature", "geometry": {"type": "Point", "coordinates": [-99.2249102, 35.3350368]}, "properties": {"kind": "landing_point", "run": 22, "reason": "landed"}}, {"type": "Feature", "geometry": {"type": "Point", "coordinates": [-99.2250641, 35.334997]}, "properties": {"kind": "landing_point", "run": 23, "reason": "landed"}}, {"type": "Feature", "geometry": {"type": "Point", "coordinates": [-99.224991, 35.3350252]}, "properties": {"kind": "landing_point", "run": 24, "reason": "landed"}}, {"type": "Feature", "geometry": {"type": "Point", "coordinates": [-99.2250229, 35.3350696]}, "properties": {"kind": "landing_point", "run": 25, "reason": "landed"}}, {"type": "Feature", "geometry": {"type": "Point", "coordinates": [-99.2249418, 35.3350088]}, "properties": {"kind": "landing_point", "run": 26, "reason": "landed"}}, {"type": "Feature", "geometry": {"type": "Point", "coordinates": [-99.2249256, 35.3349648]}, "properties": {"kind": "landing_point", "run": 27, "reason": "landed"}}, {"type": "Feature", "geometry": {"type": "Point", "coordinates": [-99.22496, 35.3350687]}, "properties": {"kind": "landing_point", "run": 28, "reason": "landed"}}, {"type": "Feature", "geometry": {"type": "Point", "coordinates": [-99.2250138, 35.3349728]}, "properties": {"kind": "landing_point", "run": 30, "reason": "landed"}}, {"type": "Feature", "geometry": {"type": "Point", "coordinates": [-99.224932, 35.3349592]}, "properties": {"kind": "landing_point", "run": 31, "reason": "landed"}}, {"type": "Feature", "geometry": {"type": "Point", "coordinates": [-99.2250224, 35.3349896]}, "properties": {"kind": "landing_point", "run": 32, "reason": "landed"}}, {"type": "Feature", "geometry": {"type": "Point", "coordinates": [-99.2249245, 35.3349665]}, "properties": {"kind": "landing_point", "run": 34, "reason": "landed"}}, {"type": "Feature", "geometry": {"type": "Point", "coordinates": [-99.2249317, 35.3350844]}, "properties": {"kind": "landing_point", "run": 35, "reason": "landed"}}, {"type": "Feature", "geometry": {"type": "Point", "coordinates": [-99.2250455, 35.3349959]}, "properties": {"kind": "landing_point", "run": 36, "reason": "landed"}}, {"type": "Feature", "geometry": {"type": "Point", "coordinates": [-99.2250288, 35.3349619]}, "properties": {"kind": "landing_point", "run": 37, "reason": "landed"}}, {"type": "Feature", "geometry": {"type": "Point", "coordinates": [-99.2250236, 35.3349974]}, "properties": {"kind": "landing_point", "run": 38, "reason": "landed"}}, {"type": "Feature", "geometry": {"type": "Point", "coordinates": [-99.2249726, 35.3349738]}, "properties": {"kind": "landing_point", "run": 39, "reason": "landed"}}, {"type": "Feature", "geometry": {"type": "Point", "coordinates": [-99.2250165, 35.3349953]}, "properties": {"kind": "landing_point", "run": 40, "reason": "landed"}}, {"type": "Feature", "geometry": {"type": "Point", "coordinates": [-99.225008, 35.334962]}, "properties": {"kind": "landing_point", "run": 41, "reason": "landed"}}, {"type": "Feature", "geometry": {"type": "Point", "coordinates": [-99.2249965, 35.334971]}, "properties": {"kind": "landing_point", "run": 42, "reason": "landed"}}, {"type": "Feature", "geometry": {"type": "Point", "coordinates": [-99.224954, 35.3350071]}, "properties": {"kind": "landing_point", "run": 43, "reason": "landed"}}, {"type": "Feature", "geometry": {"type": "Point", "coordinates": [-99.2250286, 35.3350012]}, "properties": {"kind": "landing_point", "run": 44, "reason": "landed"}}, {"type": "Feature", "geometry": {"type": "Point", "coordinates": [-99.2249366, 35.3349563]}, "properties": {"kind": "landing_point", "run": 45, "reason": "landed"}}, {"type": "Feature", "geometry": {"type": "Point", "coordinates": [-99.2249608, 35.3350333]}, "properties": {"kind": "landing_point", "run": 46, "reason": "landed"}}, {"type": "Feature", "geometry": {"type": "Point", "coordinates": [-99.2250026, 35.3349745]}, "properties": {"kind": "landing_point", "run": 47, "reason": "landed"}}, {"type": "Feature", "geometry": {"type": "Point", "coordinates": [-99.2250613, 35.3349842]}, "properties": {"kind": "landing_point", "run": 48, "reason": "landed"}}, {"type": "Feature", "geometry": {"type": "Point", "coordinates": [-99.2250237, 35.3350236]}, "properties": {"kind": "landing_point", "run": 49, "reason": "landed"}}, {"type": "Feature", "geometry": {"type": "Point", "coordinates": [-99.2238003, 35.335429]}, "properties": {"kind": "landing_point", "run": 50, "reason": "missed_target"}}, {"type": "Feature", "geometry": {"type": "Point", "coordinates": [-99.2246986, 35.3349377]}, "properties": {"kind": "landing_point", "run": 51, "reason": "landed"}}, {"type": "Feature", "geometry": {"type": "Point", "coordinates": [-99.2250153, 35.3350371]}, "properties": {"kind": "landing_point", "run": 52, "reason": "landed"}}, {"type": "Feature", "geometry": {"type": "Point", "coordinates": [-99.2250459, 35.3349938]}, "properties": {"kind": "landing_point", "run": 53, "reason": "landed"}}, {"type": "Feature", "geometry": {"type": "Point", "coordinates": [-99.2250136, 35.3349987]}, "properties": {"kind": "landing_point", "run": 54, "reason": "landed"}}, {"type": "Feature", "geometry": {"type": "Point", "coordinates": [-99.2249256, 35.3350475]}, "properties": {"kind": "landing_point", "run": 55, "reason": "landed"}}, {"type": "Feature", "geometry": {"type": "Point", "coordinates": [-99.2249821, 35.3350471]}, "properties": {"kind": "landing_point", "run": 56, "reason": "landed"}}, {"type": "Feature", "geometry": {"type": "Point", "coordinates": [-99.2250386, 35.3350205]}, "properties": {"kind": "landing_point", "run": 57, "reason": "landed"}}, {"type": "Feature", "geometry": {"type": "Point", "coordinates": [-99.2244249, 35.3355831]}, "properties": {"kind": "landing_point", "run": 58, "reason": "missed_target"}}, {"type": "Feature", "geometry": {"type": "Point", "coordinates": [-99.2249527, 35.334977]}, "properties": {"kind": "landing_point", "run": 59, "reason": "landed"}}, {"type": "Feature", "geometry": {"type": "Point", "coordinates": [-99.225009, 35.3350526]}, "properties": {"kind": "landing_point", "run": 60, "reason": "landed"}}, {"type": "Feature", "geometry": {"type": "Point", "coordinates": [-99.224887, 35.3350062]}, "properties": {"kind": "landing_point", "run": 61, "reason": "landed"}}, {"type": "Feature", "geometry": {"type": "Point", "coordinates": [-99.2250307, 35.3350099]}, "properties": {"kind": "landing_point", "run": 62, "reason": "landed"}}, {"type": "Feature", "geometry": {"type": "Point", "coordinates": [-99.2249886, 35.3350081]}, "properties": {"kind": "landing_point", "run": 63, "reason": "landed"}}, {"type": "Feature", "geometry": {"type": "Point", "coordinates": [-106.9080717, 33.0952302]}, "properties": {"kind": "impact_point", "run": 15, "reason": "terrain_impact", "phase": "ascent"}}, {"type": "Feature", "geometry": {"type": "Point", "coordinates": [-119.5456119, 27.7982363]}, "properties": {"kind": "impact_point", "run": 20, "reason": "terrain_impact", "phase": "ascent"}}, {"type": "Feature", "geometry": {"type": "Point", "coordinates": [-99.224191, 35.3347746]}, "properties": {"kind": "impact_point", "run": 29, "reason": "tipped_over", "phase": "landing"}}, {"type": "Feature", "geometry": {"type": "Point", "coordinates": [-110.2541184, 26.7083485]}, "properties": {"kind": "impact_point", "run": 33, "reason": "terrain_impact", "phase": "ascent"}}, {"type": "Feature", "geometry": {"type": "Polygon", "coordinates": [[[-107.0187579, 33.0255805], [-107.0286265, 33.0172552], [-107.0355872, 33.0070726], [-107.0391665, 32.9957269], [-107.0391215, 32.9839917], [-107.0354569, 32.9726667], [-107.0284236, 32.9625233], [-107.0185016, 32.9542523], [-107.0063669, 32.9484167], [-106.9928459, 32.9454137], [-106.9788586, 32.9454477], [-106.9653569, 32.9485163], [-106.9519954, 32.9532021], [-106.93588, 32.9595002], [-106.9196763, 32.9640256], [-106.8955433, 32.9719543], [-106.8820796, 32.9772771], [-106.871074, 32.9813873], [-106.8571532, 32.9856335], [-106.8393258, 32.9910763], [-106.8177984, 32.9977432], [-106.7941404, 33.0064677], [-106.7682542, 33.0152869], [-106.7364271, 33.0258388], [-106.6989541, 33.0384312], [-106.6549442, 33.0535331], [-106.6028932, 33.0717164], [-106.5408307, 33.0928815], [-106.46555, 33.1180737], [-106.3748531, 33.1486169], [-106.2662262, 33.1850282], [-106.1374096, 33.2280376], [-105.9870194, 33.2778925], [-105.8139337, 33.3351426], [-105.6174771, 33.3998733], [-105.3968003, 33.4717938], [-105.1503777, 33.5512417], [-104.8773926, 33.6388853], [-104.5766825, 33.7345769], [-104.2471965, 33.838183], [-103.8869329, 33.9499132], [-103.493155, 34.0707637], [-103.0627822, 34.2012543], [-102.602282, 34.3382922], [-102.1149597, 34.4811011], [-101.6001301, 34.6294297], [-101.056525, 34.783266], [-100.4828793, 34.9422099], [-99.8778725, 35.1061796], [-99.2378646, 35.275486], [-99.1841506, 35.3430687], [-99.1735214, 35.3960438], [-99.1887308, 35.390519], [-99.2060488, 35.3859456], [-99.2186314, 35.3829397], [-99.2352862, 35.3789308], [-99.2484432, 35.3741657], [-99.2596383, 35.3667882], [-99.2681081, 35.3573016], [-99.2732758, 35.3463531], [-99.2747905, 35.3346891], [-99.2725504, 35.3231048], [-99.2667097, 35.3123895], [-99.2576675, 35.3032729], [-99.2460404, 35.2963757], [-99.2326204, 35.2921674], [-99.2183208, 35.2909342], [-99.2041146, 35.2927601], [-99.1875494, 35.2967478], [-99.173405, 35.3001389], [-99.1493264, 35.3066219], [-99.128151, 35.3141751], [-99.0835667, 35.3799341], [-99.2767896, 35.3595306], [-99.9120804, 35.191582], [-100.5176869, 35.0274488], [-101.0918895, 34.8683462], [-101.6359947, 34.7143614], [-102.1512671, 34.5658957], [-102.6389985, 34.4229555], [-103.0999451, 34.2857715], [-103.5307198, 34.1551447], [-103.9247712, 34.0341954], [-104.2853459, 33.9223536], [-104.6151755, 33.8186244], [-104.9161546, 33.7228324], [-105.1892858, 33.6351276], [-105.435895, 33.5556058], [-105.6568799, 33.4835721], [-105.8535329, 33.4187647], [-106.0266733, 33.3614856], [-106.1771812, 33.3115819], [-106.3061505, 33.268513], [-106.4148932, 33.2320555], [-106.5055345, 33.2015247], [-106.5810109, 33.1762614], [-106.6438016, 33.154843], [-106.6959435, 33.1366243], [-106.7392641, 33.1217557], [-106.7761327, 33.1093641], [-106.8081975, 33.0987303], [-106.8359906, 33.0892499], [-106.8579821, 33.0811018], [-106.8762008, 33.0755015], [-106.8939333, 33.0700868], [-106.911244, 33.0647468], [-106.9267584, 33.0590064], [-106.9380494, 33.0544933], [-106.9563307, 33.0485133], [-106.9755148, 33.0430351], [-106.995107, 33.0355153], [-107.0066539, 33.0314804], [-107.0187579, 33.0255805]]]}, "properties": {"kind": "iip_corridor", "label": "Powered-flight IIP corridor", "basis": "drag-aware IIP trace +/- 5.0 km", "area_km2": 7778.999728727999, "name": "Powered-flight IIP corridor"}}, {"type": "Feature", "geometry": {"type": "Polygon", "coordinates": [[[-99.2312056, 35.3359726], [-99.2311648, 35.3350819], [-99.2311627, 35.3350391], [-99.2310567, 35.3341619], [-99.2310491, 35.3341191], [-99.2310361, 35.3340765], [-99.2307224, 35.333233], [-99.2307041, 35.3331911], [-99.2306806, 35.33315], [-99.2301712, 35.3323727], [-99.2301427, 35.3323328], [-99.2301094, 35.3322946], [-99.2294239, 35.3316132], [-99.2293861, 35.3315767], [-99.229344, 35.3315424], [-99.229298, 35.3315104], [-99.2284628, 35.3309512], [-99.2284132, 35.3309218], [-99.2283604, 35.3308952], [-99.2274075, 35.3304797], [-99.2273519, 35.3304561], [-99.227294, 35.3304358], [-99.2272341, 35.3304188], [-99.2262001, 35.330163], [-99.2261388, 35.3301495], [-99.2260764, 35.3301396], [-99.2260135, 35.3301333], [-99.2249382, 35.3300469], [-99.2248753, 35.3300444], [-99.2248127, 35.3300456], [-99.2247511, 35.3300506], [-99.2236758, 35.330137], [-99.2236155, 35.3301456], [-99.2235571, 35.3301579], [-99.2225231, 35.3304137], [-99.2224669, 35.3304295], [-99.2224134, 35.3304487], [-99.2214605, 35.3308642], [-99.2214101, 35.3308867], [-99.2211288, 35.3310358], [-99.2202936, 35.3315949], [-99.2196081, 35.3322763], [-99.2190987, 35.3330537], [-99.2187079, 35.3337081], [-99.2183942, 35.3345516], [-99.2182882, 35.3354289], [-99.2183941, 35.3363061], [-99.2187077, 35.3371497], [-99.219217, 35.3379271], [-99.2199025, 35.3386085], [-99.2207378, 35.3391678], [-99.2216907, 35.3395833], [-99.223584, 35.340127], [-99.2246181, 35.3403829], [-99.2256935, 35.3404693], [-99.2267689, 35.3403829], [-99.227803, 35.340127], [-99.228756, 35.3397115], [-99.2295913, 35.3391522], [-99.2302768, 35.3384708], [-99.2307861, 35.3376934], [-99.2310997, 35.3368498], [-99.2312056, 35.3359726]]]}, "properties": {"kind": "landing_zone", "label": "Landing hazard area", "basis": "hull of 61 touchdowns and the 99 % ellipse + 500 m", "area_km2": 1.0645723025712588, "name": "Landing hazard area"}}, {"type": "Feature", "geometry": {"type": "Polygon", "coordinates": [[[-106.9617456, 33.0952187], [-106.960709, 33.0864467], [-106.9576502, 33.0780126], [-106.9526873, 33.0702404], [-106.9460112, 33.0634286], [-106.9378787, 33.0578387], [-106.9286021, 33.0536853], [-106.9185377, 33.0511277], [-106.9080717, 33.0502641], [-106.8976057, 33.0511277], [-106.8875413, 33.0536853], [-106.8782648, 33.0578387], [-106.8701323, 33.0634286], [-106.8634562, 33.0702404], [-106.8584932, 33.0780126], [-106.8554344, 33.0864467], [-106.8543978, 33.0952187], [-106.8554239, 33.1039916], [-106.8584738, 33.1124282], [-106.8634308, 33.1202041], [-106.8701048, 33.1270203], [-106.8782394, 33.1326146], [-106.8875219, 33.1367718], [-106.8975952, 33.1393318], [-106.9080717, 33.1401963], [-106.9185482, 33.1393318], [-106.9286216, 33.1367718], [-106.937904, 33.1326146], [-106.9460386, 33.1270203], [-106.9527126, 33.1202041], [-106.9576697, 33.1124282], [-106.9607196, 33.1039916], [-106.9617456, 33.0952187]]]}, "properties": {"kind": "failure_impacts", "label": "Failure impact area 1", "basis": "hull of 1 failed-run impact point(s) + 5.0 km", "phases": ["ascent"], "runs": [15], "area_km2": 78.0361288064513, "name": "Failure impact area 1"}}, {"type": "Feature", "geometry": {"type": "Polygon", "coordinates": [[[-119.5964443, 27.798227], [-119.5954635, 27.7894549], [-119.5925675, 27.7810206], [-119.5878678, 27.7732481], [-119.5815453, 27.7664359], [-119.5738432, 27.7608455], [-119.5650572, 27.7566917], [-119.5555248, 27.7541339], [-119.5456119, 27.7532703], [-119.535699, 27.7541339], [-119.5261666, 27.7566917], [-119.5173807, 27.7608455], [-119.5096785, 27.7664359], [-119.5033561, 27.7732481], [-119.4986564, 27.7810206], [-119.4957603, 27.7894549], [-119.4947795, 27.798227], [-119.4957523, 27.8069998], [-119.4986415, 27.8154362], [-119.5033366, 27.8232117], [-119.5096575, 27.8300275], [-119.5173612, 27.8356214], [-119.5261518, 27.8397782], [-119.535691, 27.8423381], [-119.5456119, 27.8432024], [-119.5555328, 27.8423381], [-119.5650721, 27.8397782], [-119.5738626, 27.8356214], [-119.5815664, 27.8300275], [-119.5878872, 27.8232117], [-119.5925823, 27.8154362], [-119.5954716, 27.8069998], [-119.5964443, 27.798227]]]}, "properties": {"kind": "failure_impacts", "label": "Failure impact area 2", "basis": "hull of 1 failed-run impact point(s) + 5.0 km", "phases": ["ascent"], "runs": [20], "area_km2": 78.0361288064513, "name": "Failure impact area 2"}}, {"type": "Feature", "geometry": {"type": "Polygon", "coordinates": [[[-110.3044551, 26.7083396], [-110.3034841, 26.6995675], [-110.3006164, 26.6911331], [-110.2959627, 26.6833605], [-110.2897019, 26.6765482], [-110.2820748, 26.6709578], [-110.2733744, 26.6668039], [-110.2639348, 26.6642461], [-110.2541184, 26.6633824], [-110.244302, 26.6642461], [-110.2348624, 26.6668039], [-110.226162, 26.6709578], [-110.2185349, 26.6765482], [-110.2122741, 26.6833605], [-110.2076204, 26.6911331], [-110.2047527, 26.6995675], [-110.2037817, 26.7083396], [-110.2047451, 26.7171124], [-110.2076063, 26.7255487], [-110.2122558, 26.7333242], [-110.218515, 26.7401399], [-110.2261436, 26.7457337], [-110.2348483, 26.7498904], [-110.2442944, 26.7524502], [-110.2541184, 26.7533146], [-110.2639424, 26.7524502], [-110.2733884, 26.7498904], [-110.2820932, 26.7457337], [-110.2897218, 26.7401399], [-110.295981, 26.7333242], [-110.3006305, 26.7255487], [-110.3034917, 26.7171124], [-110.3044551, 26.7083396]]]}, "properties": {"kind": "failure_impacts", "label": "Failure impact area 3", "basis": "hull of 1 failed-run impact point(s) + 5.0 km", "phases": ["ascent"], "runs": [33], "area_km2": 78.0361288064513, "name": "Failure impact area 3"}}]}